DMSP 5D-3 F16 (USA 172) 
1 28054U 03048A   26136.97439696 -.00000014  00000+0  16618-4 0  9996
2 28054  98.9909 160.5936 0006147 229.4014 215.3303 14.14479593165078
METEOSAT-9 (MSG-2)      
1 28912U 05049B   26136.82341424  .00000130  00000+0  00000+0 0  9998
2 28912   9.2923  54.4704 0001079 321.8632 200.2834  1.00270064  6684
DMSP 5D-3 F17 (USA 191) 
1 29522U 06050A   26136.98592633  .00000034  00000+0  39845-4 0  9993
2 29522  98.7386 144.1942 0010828 139.7838 220.4139 14.14987362  8011
FENGYUN 3A              
1 32958U 08026A   26136.82301794  .00000029  00000+0  34529-4 0  9992
2 32958  98.6875  78.2456 0007986 212.4778 147.5908 14.19564075930957
GOES 14                 
1 35491U 09033A   26136.91717645 -.00000139  00000+0  00000+0 0  9997
2 35491   1.6103  83.3882 0001592 336.2439 304.6111  1.00117207  6274
DMSP 5D-3 F18 (USA 210) 
1 35951U 09057A   26136.95514547  .00000182  00000+0  11749-3 0  9997
2 35951  98.9028 117.7953 0010786 346.2372  13.8506 14.14878172855175
EWS-G2 (GOES 15)        
1 36411U 10008A   26136.91711463  .00000030  00000+0  00000+0 0  9995
2 36411   1.1938  83.3889 0004580  31.7947 152.9665  1.00273535 59325
COMS 1                  
1 36744U 10032A   26136.26927954 -.00000334  00000+0  00000+0 0  9991
2 36744   4.7251  75.7735 0000746 347.9778  35.3154  1.00268850 50771
FENGYUN 3B              
1 37214U 10059A   26136.98633284  .00000373  00000+0  21645-3 0  9996
2 37214  98.9646 182.8644 0020972 275.6500 201.4564 14.14834823803011
SUOMI NPP               
1 37849U 11061A   26136.90368062  .00000029  00000+0  34868-4 0  9995
2 37849  98.7943  77.9960 0002782  67.6144 292.5327 14.19510288754003
METEOSAT-10 (MSG-3)     
1 38552U 12035B   26136.38308712  .00000003  00000+0  00000+0 0  9995
2 38552   4.5975  61.1526 0001722 318.0972 352.8145  1.00271062 50538
METOP-B                 
1 38771U 12049A   26136.93577476  .00000060  00000+0  47439-4 0  9994
2 38771  98.6525 189.0550 0003491  84.7970 275.3606 14.21423385708820
INSAT-3D                
1 39216U 13038B   26136.91128309 -.00000330  00000+0  00000+0 0  9992
2 39216   1.8459  82.9101 0001038 299.8182 309.4735  1.00272296 46765
FENGYUN 3C              
1 39260U 13052A   26136.87668882  .00000050  00000+0  46282-4 0  9992
2 39260  98.4965 112.1930 0015763 111.6893 248.5962 14.15747371654136
METEOR-M 2              
1 40069U 14037A   26136.96270119  .00000084  00000+0  57467-4 0  9991
2 40069  98.5093 113.8101 0006711 120.1662 240.0182 14.21452933614881
HIMAWARI-8              
1 40267U 14060A   26136.91344977 -.00000266  00000+0  00000+0 0  9995
2 40267   0.0152 342.5591 0000670  92.8020 268.7545  1.00272939 42446
FENGYUN 2G              
1 40367U 14090A   26136.80025036 -.00000292  00000+0  00000+0 0  9998
2 40367   5.5593  73.1860 0003202 134.9788  54.0055  1.00263563 41685
METEOSAT-11 (MSG-4)     
1 40732U 15034A   26136.81615868  .00000071  00000+0  00000+0 0  9996
2 40732   3.1241  71.2773 0001732 354.7823 111.5363  1.00270472  6909
ELEKTRO-L 2             
1 41105U 15074A   26136.66880213 -.00000109  00000+0  00000+0 0  9999
2 41105   6.6144  70.9014 0001477 259.0104 130.7368  1.00272052 38193
INSAT-3DR               
1 41752U 16054A   26136.82896093 -.00000068  00000+0  00000+0 0  9991
2 41752   0.0928  87.5025 0011087 190.6326 328.8328  1.00271423 35508
HIMAWARI-9              
1 41836U 16064A   26136.34313377  .00000000  00000+0  00000+0 0  9996
2 41836   0.0286  98.5725 0001246  20.4614  19.3257  1.00268866 34894
GOES 16                 
1 41866U 16071A   26136.93516701 -.00000082  00000+0  00000+0 0  9999
2 41866   0.2637  85.6916 0000930 255.2170 125.7109  1.00271641 34794
FENGYUN 4A              
1 41882U 16077A   26136.91015641 -.00000348  00000+0  00000+0 0  9993
2 41882   2.2430  80.6006 0008519 145.4388  99.9772  1.00268479 34616
CYGFM05                 
1 41884U 16078A   26136.93275068  .00018790  00000+0  26871-3 0  9996
2 41884  34.9561 107.3184 0008612 223.7573 136.2468 15.55222838523882
CYGFM04                 
1 41885U 16078B   26136.93260153  .00023672  00000+0  28606-3 0  9999
2 41885  34.9329  76.5167 0008428 261.8555  98.1214 15.59671599524119
CYGFM02                 
1 41886U 16078C   26136.92454432  .00027167  00000+0  29787-3 0  9998
2 41886  34.9413  71.9446 0009602 263.2590  96.7043 15.62156210524276
CYGFM01                 
1 41887U 16078D   26136.93460972  .00019379  00000+0  27073-3 0  9998
2 41887  34.9392 108.6092 0008235 218.6395 141.3740 15.55852652523833
CYGFM08                 
1 41888U 16078E   26136.94543609  .00022018  00000+0  28023-3 0  9999
2 41888  34.9430  88.9038 0010101 245.4297 114.5376 15.58299758524092
CYGFM07                 
1 41890U 16078G   26136.90654507  .00022651  00000+0  28739-3 0  9995
2 41890  34.9450  77.5306 0008796 260.9662  99.0067 15.58393432524115
CYGFM03                 
1 41891U 16078H   26136.94151410  .00022517  00000+0  28577-3 0  9996
2 41891  34.9405  79.2461 0008063 251.5252 108.4597 15.58395390524090
FENGYUN 3D              
1 43010U 17072A   26136.92694782 -.00000005  00000+0  19493-4 0  9995
2 43010  99.0105 110.7875 0002321 114.3204 245.8214 14.19732199440556
NOAA 20 (JPSS-1)        
1 43013U 17073A   26136.91677390  .00000053  00000+0  45955-4 0  9998
2 43013  98.7762  76.6595 0001383  47.3059 312.8233 14.19505535440034
GOES 17                 
1 43226U 18022A   26136.92961483 -.00000173  00000+0  00000+0 0  9990
2 43226   0.8588  86.1276 0000437 321.8581  71.8280  1.00270523 30111
FENGYUN 2H              
1 43491U 18050A   26136.97262397 -.00000122  00000+0  00000+0 0  9992
2 43491   2.9505  79.4238 0001737 145.8901  78.9378  1.00272438 29126
METOP-C                 
1 43689U 18087A   26136.95671599  .00000062  00000+0  47957-4 0  9996
2 43689  98.6660 197.1280 0000387 140.2622 219.8584 14.21502888390390
GEO-KOMPSAT-2A          
1 43823U 18100A   26136.91102309 -.00000334  00000+0  00000+0 0  9992
2 43823   0.0627  96.1353 0001893 328.9441 265.7801  1.00272523 27310
METEOR-M2 2             
1 44387U 19038A   26136.91478185  .00000133  00000+0  77526-4 0  9995
2 44387  98.9131 123.7407 0002354  96.2335 263.9111 14.24357459356848
ARKTIKA-M 1             
1 47719U 21016A   26134.09923816 -.00000093  00000+0  00000+0 0  9993
2 47719  63.2320  62.5595 7275544 269.7829  14.8431  2.00633697 38104
FENGYUN 3E              
1 49008U 21062A   26136.98480826  .00000337  00000+0  17964-3 0  9997
2 49008  98.7493 140.7405 0001975 140.4777 219.6544 14.19902681252153
GOES 18                 
1 51850U 22021A   26136.95183462  .00000105  00000+0  00000+0 0  9996
2 51850   0.0070  51.0550 0000358  85.6735 303.6013  1.00272174  6279
NOAA 21 (JPSS-2)        
1 54234U 22150A   26136.80985013  .00000021  00000+0  30556-4 0  9995
2 54234  98.7051  76.1280 0000686 322.2242  37.8886 14.19559338182099
METEOSAT-12 (MTG-I1)    
1 54743U 22170C   26136.81425200  .00000002  00000+0  00000+0 0  9995
2 54743   0.7474  25.5467 0000700 341.3113 160.4519  1.00272501 12668
TIANMU-1 03             
1 55973U 23039A   26136.93341363  .00012753  00000+0  26015-3 0  9990
2 55973  97.5220 309.7045 0002946 183.7257 176.3971 15.46345420176000
TIANMU-1 04             
1 55974U 23039B   26136.93461025  .00012488  00000+0  24989-3 0  9992
2 55974  97.5156 308.8583 0003666 183.4259 176.6966 15.46908590176016
TIANMU-1 05             
1 55975U 23039C   26136.91274084  .00012876  00000+0  26326-3 0  9996
2 55975  97.5199 309.3095 0002201 202.6810 157.4343 15.46276764175981
TIANMU-1 06             
1 55976U 23039D   26136.93619223  .00013071  00000+0  26222-3 0  9990
2 55976  97.5209 309.9386 0002665 199.9172 160.1974 15.46828050176013
FENGYUN 3G              
1 56232U 23055A   26136.90976855  .00020819  00000+0  33044-3 0  9996
2 56232  49.9907 147.3837 0005923  51.4894 308.6603 15.53257034175140
METEOR-M2 3             
1 57166U 23091A   26136.97224456 -.00000019  00000+0  10459-4 0  9990
2 57166  98.6106 192.5856 0002782 256.5077 103.5792 14.24043826150078
TIANMU-1 07             
1 57399U 23101A   26136.96089622  .00005027  00000+0  17883-3 0  9993
2 57399  97.2612 188.3519 0001328 201.2110 158.9075 15.29418432156879
TIANMU-1 08             
1 57400U 23101B   26136.92793659  .00004655  00000+0  16535-3 0  9993
2 57400  97.2601 188.0942 0003086 200.5547 159.5570 15.29505056156861
TIANMU-1 09             
1 57401U 23101C   26136.32271698  .00000269  00000+0  94228-5 0  9996
2 57401  97.2563 186.9351 0001055 212.5868 147.5824 15.29490940156777
TIANMU-1 10             
1 57402U 23101D   26136.94401779  .00005065  00000+0  18018-3 0  9990
2 57402  97.2638 188.5613 0003214 229.1202 130.9760 15.29414083156864
FENGYUN 3F              
1 57490U 23111A   26136.89896056  .00000018  00000+0  28826-4 0  9990
2 57490  98.6842 207.4886 0001313 113.4901 246.6413 14.19933151144424
ARKTIKA-M 2             
1 58584U 23198A   26131.87078771  .00000209  00000+0  00000+0 0  9990
2 58584  63.2200 158.4122 6892538 267.5395  18.8214  2.00594641 17593
TIANMU-1 11             
1 58645U 23205A   26136.98852388  .00004441  00000+0  17190-3 0  9992
2 58645  97.3459 159.0413 0010806 111.5451 248.6941 15.26647024132763
TIANMU-1 12             
1 58646U 23205B   26136.95805306  .00004270  00000+0  16571-3 0  9990
2 58646  97.3448 158.7736 0009190  97.8227 262.4055 15.26599514132745
TIANMU-1 13             
1 58647U 23205C   26136.98728484  .00004537  00000+0  17665-3 0  9996
2 58647  97.3475 159.0702 0008952  81.4335 278.7918 15.26456960132742
TIANMU-1 14             
1 58648U 23205D   26136.90785252  .00004288  00000+0  16688-3 0  9992
2 58648  97.3412 158.1984 0009806  85.3878 274.8481 15.26500351132735
TIANMU-1 19             
1 58660U 23208A   26136.92112064  .00006300  00000+0  21245-3 0  9998
2 58660  97.4475 253.0798 0006273  75.5599 284.6338 15.31060420132546
TIANMU-1 20             
1 58661U 23208B   26136.91791997  .00006629  00000+0  21522-3 0  9998
2 58661  97.4416 253.6796 0008463  80.3633 279.8564 15.32252430132634
TIANMU-1 21             
1 58662U 23208C   26136.95240473  .00007632  00000+0  23074-3 0  9990
2 58662  97.4475 256.2624 0008418  74.5267 285.6905 15.34474692132774
TIANMU-1 22             
1 58663U 23208D   26136.95813920  .00005720  00000+0  19607-3 0  9997
2 58663  97.4472 253.0785 0005244  94.7585 265.4254 15.30581583132559
TIANMU-1 15             
1 58700U 24004A   26136.96874821  .00004347  00000+0  16837-3 0  9998
2 58700  97.4667 323.1611 0008595  98.6090 261.6123 15.26673253131014
TIANMU-1 16             
1 58701U 24004B   26136.95238198  .00004510  00000+0  17604-3 0  9994
2 58701  97.4613 322.4169 0007579 101.0915 259.1176 15.26401394131017
TIANMU-1 17             
1 58702U 24004C   26136.93783494  .00004568  00000+0  17828-3 0  9998
2 58702  97.4642 322.8756 0007098 105.1225 255.0799 15.26402338131005
TIANMU-1 18             
1 58703U 24004D   26136.98508178  .00004099  00000+0  15908-3 0  9994
2 58703  97.4658 323.1586 0005691 100.4027 259.7853 15.26664564131017
INSAT-3DS               
1 58990U 24033A   26136.90176124 -.00000146  00000+0  00000+0 0  9991
2 58990   0.0533 256.2819 0001263 153.8816 231.1608  1.00270390 46756
METEOR-M2 4             
1 59051U 24039A   26136.95153422 -.00000012  00000+0  14414-4 0  9998
2 59051  98.6994  96.6458 0005909 259.4508 100.6005 14.22426092114821
GOES 19                 
1 60133U 24119A   26136.94204988 -.00000239  00000+0  00000+0 0  9995
2 60133   0.0534 101.4585 0000443  29.0450   8.0971  1.00270137  6655
FENGYUN 3H              
1 65815U 25219A   26136.82445275  .00000012  00000+0  25965-4 0  9992
2 65815  98.6759  78.2061 0001447 100.9376 259.1964 14.19914354 32931
